[{"OBJECT_NAME":"HULIANWANG DIGUI-93","OBJECT_ID":"2025-231G","EPOCH":"2026-03-09T19:16:35.240160","MEAN_MOTION":13.29330038,"ECCENTRICITY":6.187e-5,"INCLINATION":50.0015,"RA_OF_ASC_NODE":171.9065,"ARG_OF_PERICENTER":210.2285,"MEAN_ANOMALY":149.8552,"EPHEMERIS_TYPE":0,"CLASSIFICATION_TYPE":"U","NORAD_CAT_ID":66001,"ELEMENT_SET_NO":999,"REV_AT_EPOCH":1967,"BSTAR":0.00012000941,"MEAN_MOTION_DOT":-6.8e-7,"MEAN_MOTION_DDOT":0},{"OBJECT_NAME":"FENGYUN 1C DEB","OBJECT_ID":"1999-025UJ","EPOCH":"2026-03-08T07:18:05.574816","MEAN_MOTION":13.6320026,"ECCENTRICITY":0.04486343,"INCLINATION":98.6335,"RA_OF_ASC_NODE":6.54,"ARG_OF_PERICENTER":273.275,"MEAN_ANOMALY":244.5624,"EPHEMERIS_TYPE":0,"CLASSIFICATION_TYPE":"U","NORAD_CAT_ID":30177,"ELEMENT_SET_NO":999,"REV_AT_EPOCH":94628,"BSTAR":0.0013133197,"MEAN_MOTION_DOT":1.999e-5,"MEAN_MOTION_DDOT":0}]
